{
    "links": {
        "self": "http://www.neowsapp.com/rest/v1/neo/3989178?api_key=iIulBulltgU6a56xZRHN4H3l9WmuAYTsLGpBGhQ2"
    },
    "id": "3989178",
    "neo_reference_id": "3989178",
    "name": "(2020 BY7)",
    "designation": "2020 BY7",
    "nasa_jpl_url": "http://ssd.jpl.nasa.gov/sbdb.cgi?sstr=3989178",
    "absolute_magnitude_h": 23.643,
    "estimated_diameter": {
        "kilometers": {
            "estimated_diameter_min": 0.0496540842,
            "estimated_diameter_max": 0.1110299077
        },
        "meters": {
            "estimated_diameter_min": 49.6540842296,
            "estimated_diameter_max": 111.029907698
        },
        "miles": {
            "estimated_diameter_min": 0.030853608,
            "estimated_diameter_max": 0.0689907648
        },
        "feet": {
            "estimated_diameter_min": 162.907105704,
            "estimated_diameter_max": 364.2713623718
        }
    },
    "is_potentially_hazardous_asteroid": false,
    "close_approach_data": [
        {
            "close_approach_date": "2020-01-13",
            "close_approach_date_full": "2020-Jan-13 06:29",
            "epoch_date_close_approach": 1578896940000,
            "relative_velocity": {
                "kilometers_per_second": "18.1283290519",
                "kilometers_per_hour": "65261.9845868616",
                "miles_per_hour": "40551.2592562085"
            },
            "miss_distance": {
                "astronomical": "0.1541456103",
                "lunar": "59.9626424067",
                "kilometers": "23059854.970730061",
                "miles": "14328729.4467984018"
            },
            "orbiting_body": "Earth"
        }
    ],
    "orbital_data": {
        "orbit_id": "1",
        "orbit_determination_date": "2020-01-25 13:42:09",
        "first_observation_date": "2020-01-21",
        "last_observation_date": "2020-01-25",
        "data_arc_in_days": 4,
        "observations_used": 19,
        "orbit_uncertainty": "9",
        "minimum_orbit_intersection": ".0283973",
        "jupiter_tisserand_invariant": "4.576",
        "epoch_osculation": "2458871.5",
        "eccentricity": ".6870007648507724",
        "semi_major_axis": "1.356294987530345",
        "inclination": "4.250291904790524",
        "ascending_node_longitude": "96.02581302769318",
        "orbital_period": "576.9386871764431",
        "perihelion_distance": ".4245192937337292",
        "perihelion_argument": "269.6544554477597",
        "aphelion_distance": "2.288070681326961",
        "perihelion_time": "2458810.941246387081",
        "mean_anomaly": "37.78763980510024",
        "mean_motion": ".6239831164067916",
        "equinox": "J2000",
        "orbit_class": {
            "orbit_class_type": "APO",
            "orbit_class_description": "Near-Earth asteroid orbits which cross the Earth’s orbit similar to that of 1862 Apollo",
            "orbit_class_range": "a (semi-major axis) > 1.0 AU; q (perihelion) < 1.017 AU"
        }
    },
    "is_sentry_object": false
}